NORAD_CAT_ID,OBJECT_NAME,OBJECT_TYPE,EPOCH,MEAN_MOTION,ECCENTRICITY,INCLINATION,RA_OF_ASC_NODE,ARG_OF_PERICENTER,MEAN_ANOMALY,BSTAR,MEAN_MOTION_DOT,MEAN_MOTION_DDOT,TLE_LINE0,TLE_LINE1,TLE_LINE2,SEMIMAJOR_AXIS,PERIOD,APOGEE,PERIGEE,DECAYED
52666.0,STARLINK-4079,PAYLOAD,2023-07-06 11:55:03,15.08842447,0.0001046,53.2159,220.9217,84.384,275.7272,6.8243e-05,7.99e-06,0.0,0 STARLINK-4079,1 52666U 22053L   23187.49656552  .00000799  00000-0  68243-4 0  9992,2 52666  53.2159 220.9217 0001046  84.3840 275.7272 15.08842447 63524,6917.873,95.437,540.462,539.014,0.0
52666.0,STARLINK-4079,PAYLOAD,2023-07-08 08:25:51,15.08839924,0.0001075,53.2156,212.5949,86.4679,273.6436,3.5104e-05,2.71e-06,0.0,0 STARLINK-4079,1 52666U 22053L   23189.35128803  .00000271  00000-0  35104-4 0  9997,2 52666  53.2156 212.5949 0001075  86.4679 273.6436 15.08839924 63801,6917.881,95.438,540.489,539.002,0.0
52666.0,STARLINK-4079,PAYLOAD,2023-07-09 13:02:47,15.08839947,0.0001023,53.2155,207.2428,84.5919,275.519,1.2369e-05,-9.1e-07,0.0,0 STARLINK-4079,1 52666U 22053L   23190.54360835 -.00000091  00000-0  12369-4 0  9992,2 52666  53.2155 207.2428 0001023  84.5919 275.5190 15.08839947 63984,6917.881,95.438,540.453,539.038,0.0
52666.0,STARLINK-4079,PAYLOAD,2023-07-10 17:39:44,15.08835812,0.000102,53.2158,201.8901,82.0247,278.0861,3.4145e-05,2.56e-06,0.0,0 STARLINK-4079,1 52666U 22053L   23191.73593269  .00000256  00000-0  34145-4 0  9991,2 52666  53.2158 201.8901 0001020  82.0247 278.0861 15.08835812 64168,6917.893,95.438,540.464,539.053,0.0
52666.0,STARLINK-4079,PAYLOAD,2023-07-11 23:52:04,15.08839293,0.0001023,53.2159,196.24,83.9365,276.1743,6.3471e-05,7.22e-06,0.0,0 STARLINK-4079,1 52666U 22053L   23192.99449154  .00000722  00000-0  63471-4 0  9995,2 52666  53.2159 196.2400 0001023  83.9365 276.1743 15.08839293 64350,6917.883,95.438,540.455,539.04,0.0
52666.0,STARLINK-4079,PAYLOAD,2023-07-13 17:12:05,15.08840968,0.000101,53.2154,188.5084,85.2453,274.8654,3.853e-05,3.26e-06,0.0,0 STARLINK-4079,1 52666U 22053L   23194.71673096  .00000326  00000-0  38530-4 0  9999,2 52666  53.2154 188.5084 0001010  85.2453 274.8654 15.08840968 64612,6917.877,95.437,540.441,539.044,0.0
52666.0,STARLINK-4079,PAYLOAD,2023-07-14 23:24:25,15.08838864,0.0001052,53.2156,182.8596,82.6734,277.4378,5.4558e-05,5.81e-06,0.0,0 STARLINK-4079,1 52666U 22053L   23195.97529235  .00000581  00000-0  54558-4 0  9994,2 52666  53.2156 182.8596 0001052  82.6734 277.4378 15.08838864 64803,6917.884,95.438,540.477,539.021,0.0
52666.0,STARLINK-4079,PAYLOAD,2023-07-16 05:36:45,15.08833799,0.000116,53.2161,177.2082,92.2067,267.9058,1.67e-05,-2.2e-07,0.0,0 STARLINK-4079,1 52666U 22053L   23197.23385795 -.00000022  00000-0  16700-4 0  9994,2 52666  53.2161 177.2082 0001160  92.2067 267.9058 15.08833799 64994,6917.899,95.438,540.567,538.962,0.0
52666.0,STARLINK-4079,PAYLOAD,2023-07-17 14:59:51,15.0883538,0.0001524,53.217,170.9635,86.3692,273.7474,-1.5465e-05,-5.34e-06,0.0,0 STARLINK-4079,1 52666U 22053L   23198.62490118 -.00000534  00000-0 -15465-4 0  9990,2 52666  53.2170 170.9635 0001524  86.3692 273.7474 15.08835380 65200,6917.895,95.438,540.814,538.705,0.0
52666.0,STARLINK-4079,PAYLOAD,2023-07-19 01:58:20,15.08836388,0.0001453,53.2173,164.4226,83.7844,276.3314,2.2267e-05,6.6e-07,0.0,0 STARLINK-4079,1 52666U 22053L   23200.08218406  .00000066  00000-0  22267-4 0  9998,2 52666  53.2173 164.4226 0001453  83.7844 276.3314 15.08836388 65423,6917.891,95.438,540.762,538.751,0.0
52666.0,STARLINK-4079,PAYLOAD,2023-07-19 09:55:16,15.08841732,0.0001318,53.2174,162.9353,84.944,275.1703,5.5493e-05,5.95e-06,0.0,0 STARLINK-4079,1 52666U 22053L   23200.41338000  .00000595  00000-0  55493-4 0  9992,2 52666  53.2174 162.9353 0001318  84.9440 275.1703 15.08841732 65476,6917.875,95.437,540.652,538.828,0.0
52666.0,STARLINK-4079,PAYLOAD,2023-07-21 00:04:31,15.08836638,0.0001295,53.2162,155.7994,78.0994,282.0143,5.7218e-05,6.23e-06,0.0,0 STARLINK-4079,1 52666U 22053L   23202.00314517  .00000623  00000-0  57218-4 0  9995,2 52666  53.2162 155.7994 0001295  78.0994 282.0143 15.08836638 65717,6917.891,95.438,540.652,538.86,0.0
52666.0,STARLINK-4079,PAYLOAD,2023-07-23 04:32:15,15.08838884,0.0001307,53.2167,145.9856,103.0687,257.0451,1.9582e-06,-2.57e-06,0.0,0 STARLINK-4079,1 52666U 22053L   23204.18906457 -.00000257  00000-0  19582-5 0  9993,2 52666  53.2167 145.9856 0001307 103.0687 257.0451 15.08838884 66048,6917.884,95.438,540.653,538.845,0.0
52666.0,STARLINK-4079,PAYLOAD,2023-07-25 05:49:12,15.08854148,0.0001474,53.2191,136.7666,101.0015,259.1143,-0.00013979,-2.513e-05,0.0,0 STARLINK-4079,1 52666U 22053L   23206.24250407 -.00002513  00000-0 -13979-3 0  9999,2 52666  53.2191 136.7666 0001474 101.0015 259.1143 15.08854148 66356,6917.837,95.437,540.722,538.682,0.0
52666.0,STARLINK-4079,PAYLOAD,2023-07-26 02:29:14,15.08876328,0.0001339,53.217,132.9027,100.956,259.1583,-0.00032592,-5.476e-05,0.0,0 STARLINK-4079,1 52666U 22053L   23207.10363802 -.00005476  00000-0 -32592-3 0  9992,2 52666  53.2170 132.9027 0001339 100.9560 259.1583 15.08876328 66481,6917.769,95.435,540.561,538.708,0.0
52666.0,STARLINK-4079,PAYLOAD,2023-07-27 00:44:37,15.08845856,0.0001096,53.2171,128.7382,64.6352,295.4753,9.5013e-05,1.225e-05,0.0,0 STARLINK-4079,1 52666U 22053L   23208.03098532  .00001225  00000-0  95013-4 0  9994,2 52666  53.2171 128.7382 0001096  64.6352 295.4753 15.08845856 66624,6917.862,95.437,540.486,538.969,0.0
52666.0,STARLINK-4079,PAYLOAD,2023-07-27 03:55:22,15.08851369,0.0001137,53.2173,128.1414,65.29,294.8211,0.00013629,1.883e-05,0.0,0 STARLINK-4079,1 52666U 22053L   23208.16345940  .00001883  00000-0  13629-3 0  9998,2 52666  53.2173 128.1414 0001137  65.2900 294.8211 15.08851369 66648,6917.846,95.437,540.497,538.924,0.0
52666.0,STARLINK-4079,PAYLOAD,2023-07-28 00:35:25,15.0882965,0.0001244,53.2163,124.2759,67.8563,292.2561,-5.7501e-05,-1.203e-05,0.0,0 STARLINK-4079,1 52666U 22053L   23209.02460432 -.00001203  00000-0 -57501-4 0  9994,2 52666  53.2163 124.2759 0001244  67.8563 292.2561 15.08829650 66770,6917.912,95.438,540.638,538.916,0.0
52666.0,STARLINK-4079,PAYLOAD,2023-07-28 03:46:11,15.08832429,0.0001158,53.2165,123.6824,79.2171,280.8952,-3.3951e-05,-8.28e-06,0.0,0 STARLINK-4079,1 52666U 22053L   23209.15708203 -.00000828  00000-0 -33951-4 0  9994,2 52666  53.2165 123.6824 0001158  79.2171 280.8952 15.08832429 66791,6917.904,95.438,540.57,538.967,0.0
52666.0,STARLINK-4079,PAYLOAD,2023-07-28 18:04:39,15.08852675,0.000137,53.2168,121.0056,103.3651,256.7494,-5.8579e-05,-1.22e-05,0.0,0 STARLINK-4079,1 52666U 22053L   23209.75323267 -.00001220  00000-0 -58579-4 0  9993,2 52666  53.2168 121.0056 0001370 103.3651 256.7494 15.08852675 66889,6917.842,95.437,540.654,538.759,0.0
52666.0,STARLINK-4079,PAYLOAD,2023-07-29 03:36:57,15.08861953,0.0001394,53.2161,119.2234,103.3544,256.7603,3.7425e-05,3.08e-06,0.0,0 STARLINK-4079,1 52666U 22053L   23210.15066077  .00000308  00000-0  37425-4 0  9993,2 52666  53.2161 119.2234 0001394 103.3544 256.7603 15.08861953 66944,6917.813,95.436,540.643,538.714,0.0
52666.0,STARLINK-4079,PAYLOAD,2023-07-29 11:33:52,15.08855559,0.0001058,53.2158,117.7365,89.6091,270.5022,3.7383e-05,3.07e-06,0.0,0 STARLINK-4079,1 52666U 22053L   23210.48186066  .00000307  00000-0  37383-4 0  9992,2 52666  53.2158 117.7365 0001058  89.6091 270.5022 15.08855559 66997,6917.833,95.437,540.43,538.966,0.0
52666.0,STARLINK-4079,PAYLOAD,2023-07-30 00:16:58,15.08843769,0.0001233,53.2169,115.3585,88.535,271.5783,0.00016674,2.367e-05,0.0,0 STARLINK-4079,1 52666U 22053L   23211.01179175  .00002367  00000-0  16674-3 0  9992,2 52666  53.2169 115.3585 0001233  88.5350 271.5783 15.08843769 67073,6917.869,95.437,540.587,538.881,0.0
52666.0,STARLINK-4079,PAYLOAD,2023-07-30 17:46:13,15.08841861,0.0001421,53.2174,112.0872,87.0183,273.0972,-0.00010246,-1.918e-05,0.0,0 STARLINK-4079,1 52666U 22053L   23211.74043369 -.00001918  00000-0 -10246-3 0  9999,2 52666  53.2174 112.0872 0001421  87.0183 273.0972 15.08841861 67189,6917.875,95.437,540.723,538.757,0.0
52666.0,STARLINK-4079,PAYLOAD,2023-07-31 17:37:01,15.08832198,0.0001212,53.217,107.6257,88.1829,271.9302,1.4886e-05,-5.1e-07,0.0,0 STARLINK-4079,1 52666U 22053L   23212.73404127 -.00000051  00000-0  14886-4 0  9993,2 52666  53.2170 107.6257 0001212  88.1829 271.9302 15.08832198 67333,6917.904,95.438,540.608,538.931,0.0
52666.0,STARLINK-4079,PAYLOAD,2023-07-31 23:58:33,15.08843788,0.0001154,53.2164,106.437,85.3687,274.7437,3.0698e-05,2.01e-06,0.0,0 STARLINK-4079,1 52666U 22053L   23212.99899325  .00000201  00000-0  30698-4 0  9994,2 52666  53.2164 106.4370 0001154  85.3687 274.7437 15.08843788 67376,6917.869,95.437,540.532,538.935,0.0
52666.0,STARLINK-4079,PAYLOAD,2023-08-01 15:52:25,15.0883447,0.0001319,53.2173,103.4636,94.3053,265.809,7.4671e-05,9.01e-06,0.0,0 STARLINK-4079,1 52666U 22053L   23213.66140094  .00000901  00000-0  74671-4 0  9997,2 52666  53.2173 103.4636 0001319  94.3053 265.8090 15.08834470 67473,6917.897,95.438,540.675,538.85,0.0
52666.0,STARLINK-4079,PAYLOAD,2023-08-03 01:15:30,15.08853361,0.0001395,53.2176,97.2172,90.6769,269.4383,0.00018112,2.597e-05,0.0,0 STARLINK-4079,1 52666U 22053L   23215.05243123  .00002597  00000-0  18112-3 0  9999,2 52666  53.2176  97.2172 0001395  90.6769 269.4383 15.08853361 67686,6917.84,95.437,540.67,538.74,0.0
52666.0,STARLINK-4079,PAYLOAD,2023-08-04 02:41:40,15.08844138,0.0001428,53.2169,92.4592,87.9235,272.1921,0.00013552,1.87e-05,0.0,0 STARLINK-4079,1 52666U 22053L   23216.11227994  .00001870  00000-0  13552-3 0  9991,2 52666  53.2169  92.4592 0001428  87.9235 272.1921 15.08844138 67844,6917.868,95.437,540.721,538.745,0.0
52666.0,STARLINK-4079,PAYLOAD,2023-08-06 00:47:51,15.08850511,0.0001411,53.2165,83.834,97.2097,262.9055,0.00025913,3.84e-05,0.0,0 STARLINK-4079,1 52666U 22053L   23218.03323769  .00003840  00000-0  25913-3 0  9994,2 52666  53.2165  83.8340 0001411  97.2097 262.9055 15.08850511 68137,6917.848,95.437,540.689,538.737,0.0
